{"type": "FeatureCollection", "features": [ {"type": "Feature", "properties": {"norad_id": 32128, "name": "FENGYUN 1C DEB", "group": "fengyun-1c-debris", "lat": -61.4543917631546, "lon": 41.13573491922672, "alt_km": 727.4264660248709, "timestamp": "2025-12-03T17:47:51.002936+00:00", "meta": {"OBJECT_NAME": "FENGYUN 1C DEB", "OBJECT_ID": "1999-025CRW", "EPOCH": "2025-12-02T21:25:30.553536", "MEAN_MOTION": 13.94166483, "ECCENTRICITY": 0.03968604, "INCLINATION": 99.0315, "RA_OF_ASC_NODE": 23.3034, "ARG_OF_PERICENTER": 249.8846, "MEAN_ANOMALY": 105.9204, "EPHEMERIS_TYPE": 0, "CLASSIFICATION_TYPE": "U", "NORAD_CAT_ID": 32128, "ELEMENT_SET_NO": 999, "REV_AT_EPOCH": 62848, "BSTAR": 0.00073088857, "MEAN_MOTION_DOT": 1.817e-05, "MEAN_MOTION_DDOT": 0}, "tle": {"line1": "1 32128U 99025CRW 25336.89271474  .00001817  00000+0  73089-3 0  9998", "line2": "2 32128  99.0315  23.3034 0396860 249.8846 105.9204 13.94166483628487"}}, "geometry": {"type": "Point", "coordinates": [41.13573491922672, -61.4543917631546]}}, {"type": "Feature", "properties": {"norad_id": 32129, "name": "FENGYUN 1C DEB", "group": "fengyun-1c-debris", "lat": 19.60720253451884, "lon": -80.94005434846328, "alt_km": 805.0787075348226, "timestamp": "2025-12-03T17:47:51.002946+00:00", "meta": {"OBJECT_NAME": "FENGYUN 1C DEB", "OBJECT_ID": "1999-025CRX", "EPOCH": "2025-12-02T07:33:18.720864", "MEAN_MOTION": 14.28307923, "ECCENTRICITY": 0.00683546, "INCLINATION": 99.059, "RA_OF_ASC_NODE": 94.3219, "ARG_OF_PERICENTER": 64.7393, "MEAN_ANOMALY": 322.3051, "EPHEMERIS_TYPE": 0, "CLASSIFICATION_TYPE": "U", "NORAD_CAT_ID": 32129, "ELEMENT_SET_NO": 999, "REV_AT_EPOCH": 94078, "BSTAR": 0.002676734, "MEAN_MOTION_DOT": 6.809e-05, "MEAN_MOTION_DDOT": 0}, "tle": {"line1": "1 32129U 99025CRX 25336.31480001  .00006809  00000+0  26767-2 0  9990", "line2": "2 32129  99.0590  94.3219 0068354  64.7393 322.3051 14.28307923940780"}}, "geometry": {"type": "Point", "coordinates": [-80.94005434846328, 19.60720253451884]}}, {"type": "Feature", "properties": {"norad_id": 32130, "name": "FENGYUN 1C DEB", "group": "fengyun-1c-debris", "lat": 80.9191335969755, "lon": 42.68126437492647, "alt_km": 763.9207667741566, "timestamp": "2025-12-03T17:47:51.002956+00:00", "meta": {"OBJECT_NAME": "FENGYUN 1C DEB", "OBJECT_ID": "1999-025CRY", "EPOCH": "2025-12-02T04:37:31.884096", "MEAN_MOTION": 14.37503292, "ECCENTRICITY": 0.0082943, "INCLINATION": 98.9035, "RA_OF_ASC_NODE": 142.3292, "ARG_OF_PERICENTER": 1.367, "MEAN_ANOMALY": 358.7727, "EPHEMERIS_TYPE": 0, "CLASSIFICATION_TYPE": "U", "NORAD_CAT_ID": 32130, "ELEMENT_SET_NO": 999, "REV_AT_EPOCH": 96083, "BSTAR": 0.00049217, "MEAN_MOTION_DOT": 1.485e-05, "MEAN_MOTION_DDOT": 0}, "tle": {"line1": "1 32130U 99025CRY 25336.19273014  .00001485  00000+0  49217-3 0  9993", "line2": "2 32130  98.9035 142.3292 0082943   1.3670 358.7727 14.37503292960832"}}, "geometry": {"type": "Point", "coordinates": [42.68126437492647, 80.9191335969755]}}, {"type": "Feature", "properties": {"norad_id": 32133, "name": "FENGYUN 1C DEB", "group": "fengyun-1c-debris", "lat": 14.837768557742486, "lon": -22.851816767401694, "alt_km": 842.0614595822935, "timestamp": "2025-12-03T17:47:51.002966+00:00", "meta": {"OBJECT_NAME": "FENGYUN 1C DEB", "OBJECT_ID": "1999-025CSB", "EPOCH": "2025-12-03T10:57:10.951200", "MEAN_MOTION": 14.18059582, "ECCENTRICITY": 0.0036214, "INCLINATION": 98.4318, "RA_OF_ASC_NODE": 339.1293, "ARG_OF_PERICENTER": 127.0765, "MEAN_ANOMALY": 233.3731, "EPHEMERIS_TYPE": 0, "CLASSIFICATION_TYPE": "U", "NORAD_CAT_ID": 32133, "ELEMENT_SET_NO": 999, "REV_AT_EPOCH": 94843, "BSTAR": 0.0002644, "MEAN_MOTION_DOT": 5.05e-06, "MEAN_MOTION_DDOT": 0}, "tle": {"line1": "1 32133U 99025CSB 25337.45637675  .00000505  00000+0  26440-3 0  9998", "line2": "2 32133  98.4318 339.1293 0036214 127.0765 233.3731 14.18059582948434"}}, "geometry": {"type": "Point", "coordinates": [-22.851816767401694, 14.837768557742486]}}, {"type": "Feature", "properties": {"norad_id": 32134, "name": "FENGYUN 1C DEB", "group": "fengyun-1c-debris", "lat": 64.23552898337779, "lon": 179.42077276933227, "alt_km": 1000.1258502706287, "timestamp": "2025-12-03T17:47:51.002976+00:00", "meta": {"OBJECT_NAME": "FENGYUN 1C DEB", "OBJECT_ID": "1999-025CSC", "EPOCH": "2025-12-01T20:13:12.254880", "MEAN_MOTION": 14.21480635, "ECCENTRICITY": 0.02593366, "INCLINATION": 98.5946, "RA_OF_ASC_NODE": 339.3088, "ARG_OF_PERICENTER": 295.3764, "MEAN_ANOMALY": 186.5573, "EPHEMERIS_TYPE": 0, "CLASSIFICATION_TYPE": "U", "NORAD_CAT_ID": 32134, "ELEMENT_SET_NO": 999, "REV_AT_EPOCH": 94992, "BSTAR": 0.00081985182, "MEAN_MOTION_DOT": 2.474e-05, "MEAN_MOTION_DDOT": 0}, "tle": {"line1": "1 32134U 99025CSC 25335.84250295  .00002474  00000+0  81985-3 0  9991", "line2": "2 32134  98.5946 339.3088 0259336 295.3764 186.5573 14.21480635949926"}}, "geometry": {"type": "Point", "coordinates": [179.42077276933227, 64.23552898337779]}}, {"type": "Feature", "properties": {"norad_id": 32136, "name": "FENGYUN 1C DEB", "group": "fengyun-1c-debris", "lat": 31.94560285192471, "lon": 161.41283755690478, "alt_km": 735.2967138111326, "timestamp": "2025-12-03T17:47:51.002986+00:00", "meta": {"OBJECT_NAME": "FENGYUN 1C DEB", "OBJECT_ID": "1999-025CSE", "EPOCH": "2025-11-08T10:52:11.631360", "MEAN_MOTION": 14.37825296, "ECCENTRICITY": 0.00661033, "INCLINATION": 98.2658, "RA_OF_ASC_NODE": 311.8847, "ARG_OF_PERICENTER": 277.2954, "MEAN_ANOMALY": 82.0724, "EPHEMERIS_TYPE": 0, "CLASSIFICATION_TYPE": "U", "NORAD_CAT_ID": 32136, "ELEMENT_SET_NO": 999, "REV_AT_EPOCH": 64597, "BSTAR": 0.00089904729, "MEAN_MOTION_DOT": 2.737e-05, "MEAN_MOTION_DDOT": 0}, "tle": {"line1": "1 32136U 99025CSE 25312.45291240  .00002737  00000+0  89905-3 0  9992", "line2": "2 32136  98.2658 311.8847 0066103 277.2954  82.0724 14.37825296645970"}}, "geometry": {"type": "Point", "coordinates": [161.41283755690478, 31.94560285192471]}}, {"type": "Feature", "properties": {"norad_id": 32137, "name": "FENGYUN 1C DEB", "group": "fengyun-1c-debris", "lat": 53.88815523818321, "lon": -63.752780811653615, "alt_km": 557.7562516356411, "timestamp": "2025-12-03T17:47:51.002998+00:00", "meta": {"OBJECT_NAME": "FENGYUN 1C DEB", "OBJECT_ID": "1999-025CSF", "EPOCH": "2025-12-01T02:00:45.065088", "MEAN_MOTION": 14.80954252, "ECCENTRICITY": 0.0188708, "INCLINATION": 98.4409, "RA_OF_ASC_NODE": 101.7043, "ARG_OF_PERICENTER": 71.3669, "MEAN_ANOMALY": 290.7929, "EPHEMERIS_TYPE": 0, "CLASSIFICATION_TYPE": "U", "NORAD_CAT_ID": 32137, "ELEMENT_SET_NO": 999, "REV_AT_EPOCH": 66558, "BSTAR": 0.00088075161, "MEAN_MOTION_DOT": 9.212e-05, "MEAN_MOTION_DDOT": 0}, "tle": {"line1": "1 32137U 99025CSF 25335.08385492  .00009212  00000+0  88075-3 0  9992", "line2": "2 32137  98.4409 101.7043 0188708  71.3669 290.7929 14.80954252665580"}}, "geometry": {"type": "Point", "coordinates": [-63.752780811653615, 53.88815523818321]}}, {"type": "Feature", "properties": {"norad_id": 32141, "name": "FENGYUN 1C DEB", "group": "fengyun-1c-debris", "lat": 79.74697179705554, "lon": -141.2142040107577, "alt_km": 913.5667465964452, "timestamp": "2025-12-03T17:47:51.003008+00:00", "meta": {"OBJECT_NAME": "FENGYUN 1C DEB", "OBJECT_ID": "1999-025CSK", "EPOCH": "2025-11-20T23:04:46.058016", "MEAN_MOTION": 14.03501767, "ECCENTRICITY": 0.00731678, "INCLINATION": 98.7436, "RA_OF_ASC_NODE": 328.1999, "ARG_OF_PERICENTER": 269.2169, "MEAN_ANOMALY": 90.0615, "EPHEMERIS_TYPE": 0, "CLASSIFICATION_TYPE": "U", "NORAD_CAT_ID": 32141, "ELEMENT_SET_NO": 999, "REV_AT_EPOCH": 94638, "BSTAR": 0.00056632309, "MEAN_MOTION_DOT": 8.66e-06, "MEAN_MOTION_DDOT": 0}, "tle": {"line1": "1 32141U 99025CSK 25324.96164419  .00000866  00000+0  56632-3 0  9996", "line2": "2 32141  98.7436 328.1999 0073167 269.2169  90.0615 14.03501767946385"}}, "geometry": {"type": "Point", "coordinates": [-141.2142040107577, 79.74697179705554]}}, {"type": "Feature", "properties": {"norad_id": 32143, "name": "FENGYUN 1C DEB", "group": "fengyun-1c-debris", "lat": -46.4182630280827, "lon": -35.89337494681542, "alt_km": 914.0657010045588, "timestamp": "2025-12-03T17:47:51.003018+00:00", "meta": {"OBJECT_NAME": "FENGYUN 1C DEB", "OBJECT_ID": "1999-025CSM", "EPOCH": "2025-12-03T04:28:30.343584", "MEAN_MOTION": 14.17959367, "ECCENTRICITY": 0.01041232, "INCLINATION": 98.5963, "RA_OF_ASC_NODE": 314.4234, "ARG_OF_PERICENTER": 136.0042, "MEAN_ANOMALY": 224.9481, "EPHEMERIS_TYPE": 0, "CLASSIFICATION_TYPE": "U", "NORAD_CAT_ID": 32143, "ELEMENT_SET_NO": 999, "REV_AT_EPOCH": 95798, "BSTAR": 0.00020859227, "MEAN_MOTION_DOT": 4.09e-06, "MEAN_MOTION_DDOT": 0}, "tle": {"line1": "1 32143U 99025CSM 25337.18646231  .00000409  00000+0  20859-3 0  9998", "line2": "2 32143  98.5963 314.4234 0104123 136.0042 224.9481 14.17959367957983"}}, "geometry": {"type": "Point", "coordinates": [-35.89337494681542, -46.4182630280827]}}, {"type": "Feature", "properties": {"norad_id": 32150, "name": "FENGYUN 1C DEB", "group": "fengyun-1c-debris", "lat": -25.471070280035143, "lon": 175.1809495428531, "alt_km": 738.4321753350614, "timestamp": "2025-12-03T17:47:51.003029+00:00", "meta": {"OBJECT_NAME": "FENGYUN 1C DEB", "OBJECT_ID": "1999-025CSU", "EPOCH": "2025-11-29T19:09:50.026752", "MEAN_MOTION": 14.60634219, "ECCENTRICITY": 0.01723606, "INCLINATION": 99.1937, "RA_OF_ASC_NODE": 355.2308, "ARG_OF_PERICENTER": 106.7202, "MEAN_ANOMALY": 255.299, "EPHEMERIS_TYPE": 0, "CLASSIFICATION_TYPE": "U", "NORAD_CAT_ID": 32150, "ELEMENT_SET_NO": 999, "REV_AT_EPOCH": 97517, "BSTAR": 0.00012171499, "MEAN_MOTION_DOT": 6.63e-06, "MEAN_MOTION_DDOT": 0}, "tle": {"line1": "1 32150U 99025CSU 25333.79849568  .00000663  00000+0  12171-3 0  9997", "line2": "2 32150  99.1937 355.2308 0172360 106.7202 255.2990 14.60634219975171"}}, "geometry": {"type": "Point", "coordinates": [175.1809495428531, -25.471070280035143]}}]}